[{"OBJECT_NAME":"MESON-1","OBJECT_ID":"2024-043AK","EPOCH":"2026-03-09T21:36:16.481664","MEAN_MOTION":15.29893494,"ECCENTRICITY":0.00095452,"INCLINATION":97.5469,"RA_OF_ASC_NODE":205.2839,"ARG_OF_PERICENTER":227.1432,"MEAN_ANOMALY":132.9007,"EPHEMERIS_TYPE":0,"CLASSIFICATION_TYPE":"U","NORAD_CAT_ID":59131,"ELEMENT_SET_NO":999,"REV_AT_EPOCH":11189,"BSTAR":0.0002974823,"MEAN_MOTION_DOT":8.544e-5,"MEAN_MOTION_DDOT":0},{"OBJECT_NAME":"STARLINK-32472","OBJECT_ID":"2024-202B","EPOCH":"2026-03-09T10:37:42.467232","MEAN_MOTION":15.27577811,"ECCENTRICITY":0.00016961,"INCLINATION":43.0028,"RA_OF_ASC_NODE":228.6805,"ARG_OF_PERICENTER":270.1435,"MEAN_ANOMALY":89.9223,"EPHEMERIS_TYPE":0,"CLASSIFICATION_TYPE":"U","NORAD_CAT_ID":61846,"ELEMENT_SET_NO":999,"REV_AT_EPOCH":7541,"BSTAR":1.564658e-6,"MEAN_MOTION_DOT":-2.19e-6,"MEAN_MOTION_DDOT":0}]
